{
  "norad_id": 56960,
  "name": "ORBITER SN3",
  "history": [
    {
      "epoch": "2026-03-28T21:28:09.587424Z",
      "apogee_km": 470.7981711485836,
      "perigee_km": 461.00941336505093,
      "latitude_deg": -1.7577552225105228e-05,
      "longitude_deg": 77.81150476609709,
      "height_km": 470.3830936370382,
      "semi_major_axis_km": 6844.040792256817,
      "eccentricity": 0.00071513,
      "inclination_deg": 97.6129,
      "raan_deg": 226.1599,
      "arg_perigee_deg": 253.7486,
      "mean_anomaly_deg": 106.2969,
      "mean_motion_rev_day": 15.33323804
    },
    {
      "epoch": "2026-03-29T03:44:03.301728Z",
      "apogee_km": 470.78172538734634,
      "perigee_km": 460.98656232625945,
      "latitude_deg": -3.1937827690909174e-05,
      "longitude_deg": -16.150794035434863,
      "height_km": 470.4560934701244,
      "semi_major_axis_km": 6844.021143856803,
      "eccentricity": 0.0007156,
      "inclination_deg": 97.6129,
      "raan_deg": 226.4287,
      "arg_perigee_deg": 252.6274,
      "mean_anomaly_deg": 107.4185,
      "mean_motion_rev_day": 15.33330407
    },
    {
      "epoch": "2026-03-30T04:47:37.249152Z",
      "apogee_km": 470.7203962156527,
      "perigee_km": 460.8938612356278,
      "latitude_deg": 5.081946305140726e-05,
      "longitude_deg": -31.9959061899731,
      "height_km": 470.73094092299624,
      "semi_major_axis_km": 6843.94412872564,
      "eccentricity": 0.0007179,
      "inclination_deg": 97.6133,
      "raan_deg": 227.5042,
      "arg_perigee_deg": 248.331,
      "mean_anomaly_deg": 111.7168,
      "mean_motion_rev_day": 15.33356289
    },
    {
      "epoch": "2026-03-30T06:21:35.568000Z",
      "apogee_km": 470.71812455081727,
      "perigee_km": 460.8840698989152,
      "latitude_deg": -2.4417080477664406e-05,
      "longitude_deg": -55.48601284901535,
      "height_km": 470.7462502355616,
      "semi_major_axis_km": 6843.938097224866,
      "eccentricity": 0.00071845,
      "inclination_deg": 97.6133,
      "raan_deg": 227.5714,
      "arg_perigee_deg": 248.0807,
      "mean_anomaly_deg": 111.9671,
      "mean_motion_rev_day": 15.33358316
    },
    {
      "epoch": "2026-03-30T15:45:25.359264Z",
      "apogee_km": 470.69376337812446,
      "perigee_km": 460.8494852129379,
      "latitude_deg": 3.4515700879292555e-05,
      "longitude_deg": 163.57388834780568,
      "height_km": 470.83570105383,
      "semi_major_axis_km": 6843.908624295531,
      "eccentricity": 0.0007192,
      "inclination_deg": 97.6134,
      "raan_deg": 227.9747,
      "arg_perigee_deg": 246.6046,
      "mean_anomaly_deg": 113.444,
      "mean_motion_rev_day": 15.33368221
    }
  ]
}